CTC2_L_00626007-03
1 10062U 25067AS  26075.70050926  .00000000  00000+0  00000-0 0  9997
2 10062  55.0000 180.0000 0000000   0.0000 144.0000  4.55247085    10
CTC2_L_00626007-04
1 10063U 23716ZS  26075.70050926  .00000000  00000+0  00000-0 0  9997
2 10063  55.0000 180.0000 0000000   0.0000 180.0000  4.55247085    11
CTC2_L_00626007-05
1 10064U 25604PW  26075.70050926  .00000000  00000+0  00000-0 0  9996
2 10064  55.0000 180.0000 0000000   0.0000 216.0000  4.55247085    12
CTC2_L_00626007-06
1 10065U 23531PN  26075.70050926  .00000000  00000+0  00000-0 0  9994
2 10065  55.0000 180.0000 0000000   0.0000 252.0000  4.55247085    13
CTC2_L_00626007-07
1 10066U 22391VZ  26075.70050926  .00000000  00000+0  00000-0 0  9998
2 10066  55.0000 180.0000 0000000   0.0000 288.0000  4.55247085    13
CTC2_L_00626007-08
1 10067U 24625FI  26075.70050926  .00000000  00000+0  00000-0 0  9991
2 10067  55.0000 180.0000 0000000   0.0000 324.0000  4.55247085    15
CTC2_L_00626007-09
1 10068U 25610IZ  26075.70050926  .00000000  00000+0  00000-0 0  9997
2 10068  55.0000 180.0000 0000000   0.0000   0.0000  4.55247085    17
CTC2_L_00626007-10
1 10069U 23630RH  26075.70050926  .00000000  00000+0  00000-0 0  9998
2 10069  55.0000 180.0000 0000000   0.0000  36.0000  4.55247085    17
CTC2_L_00626008-01
1 10070U 23271CB  26075.70050926  .00000000  00000+0  00000-0 0  9991
2 10070  55.0000 210.0000 0000000   0.0000  84.0000  4.55247085    16
CTC2_L_00626008-02
1 10071U 23962HI  26075.70050926  .00000000  00000+0  00000-0 0  9999
2 10071  55.0000 210.0000 0000000   0.0000 120.0000  4.55247085    18
CTC2_L_00626008-03
1 10072U 24283OM  26075.70050926  .00000000  00000+0  00000-0 0  9997
2 10072  55.0000 210.0000 0000000   0.0000 156.0000  4.55247085    18
CTC2_L_00626008-04
1 10073U 26920KS  26075.70050926  .00000000  00000+0  00000-0 0  9998
2 10073  55.0000 210.0000 0000000   0.0000 192.0000  4.55247085    19
CTC2_L_00626008-05
1 10074U 24801QG  26075.70050926  .00000000  00000+0  00000-0 0  9995
2 10074  55.0000 210.0000 0000000   0.0000 228.0000  4.55247085    10
CTC2_L_00626008-06
1 10075U 22322MM  26075.70050926  .00000000  00000+0  00000-0 0  9992
2 10075  55.0000 210.0000 0000000   0.0000 264.0000  4.55247085    11
CTC2_L_00626008-07
1 10076U 22797MS  26075.70050926  .00000000  00000+0  00000-0 0  9999
2 10076  55.0000 210.0000 0000000   0.0000 300.0000  4.55247085    13
CTC2_L_00626008-08
1 10077U 23226EN  26075.70050926  .00000000  00000+0  00000-0 0  9998
2 10077  55.0000 210.0000 0000000   0.0000 336.0000  4.55247085    13
CTC2_L_00626008-09
1 10078U 24467KX  26075.70050926  .00000000  00000+0  00000-0 0  9997
2 10078  55.0000 210.0000 0000000   0.0000  12.0000  4.55247085    15
CTC2_L_00626008-10
1 10079U 26537GI  26075.70050926  .00000000  00000+0  00000-0 0  9998
2 10079  55.0000 210.0000 0000000   0.0000  48.0000  4.55247085    15
CTC2_L_00626009-01
1 10080U 23087MZ  26075.70050926  .00000000  00000+0  00000-0 0  9997
2 10080  55.0000 240.0000 0000000   0.0000  96.0000  4.55247085    13
CTC2_L_00626009-02
1 10081U 26522SR  26075.70050926  .00000000  00000+0  00000-0 0  9995
2 10081  55.0000 240.0000 0000000   0.0000 132.0000  4.55247085    15
CTC2_L_00626009-03
1 10082U 22022CM  26075.70050926  .00000000  00000+0  00000-0 0  9997
2 10082  55.0000 240.0000 0000000   0.0000 168.0000  4.55247085    15
CTC2_L_00626009-04
1 10083U 25561JV  26075.70050926  .00000000  00000+0  00000-0 0  9999
2 10083  55.0000 240.0000 0000000   0.0000 204.0000  4.55247085    17
CTC2_L_00626009-05
1 10084U 25416VF  26075.70050926  .00000000  00000+0  00000-0 0  9999
2 10084  55.0000 240.0000 0000000   0.0000 240.0000  4.55247085    18
CTC2_L_00626009-06
1 10085U 25458FD  26075.70050926  .00000000  00000+0  00000-0 0  9996
2 10085  55.0000 240.0000 0000000   0.0000 276.0000  4.55247085    18
CTC2_L_00626009-07
1 10086U 24423TD  26075.70050926  .00000000  00000+0  00000-0 0  9998
2 10086  55.0000 240.0000 0000000   0.0000 312.0000  4.55247085    10
CTC2_L_00626009-08
1 10087U 25917UH  26075.70050926  .00000000  00000+0  00000-0 0  9998
2 10087  55.0000 240.0000 0000000   0.0000 348.0000  4.55247085    10
CTC2_L_00626009-09
1 10088U 24188QO  26075.70050926  .00000000  00000+0  00000-0 0  9998
2 10088  55.0000 240.0000 0000000   0.0000  24.0000  4.55247085    12
CTC2_L_00626009-10
1 10089U 22221HI  26075.70050926  .00000000  00000+0  00000-0 0  9995
2 10089  55.0000 240.0000 0000000   0.0000  60.0000  4.55247085    13
CTC2_L_00626010-01
1 10090U 22743XX  26075.70050926  .00000000  00000+0  00000-0 0  9996
2 10090  55.0000 270.0000 0000000   0.0000 108.0000  4.55247085    11
CTC2_L_00626010-02
1 10091U 23539LE  26075.70050926  .00000000  00000+0  00000-0 0  9991
2 10091  55.0000 270.0000 0000000   0.0000 144.0000  4.55247085    12
CTC2_L_00626010-03
1 10092U 24811BX  26075.70050926  .00000000  00000+0  00000-0 0  9996
2 10092  55.0000 270.0000 0000000   0.0000 180.0000  4.55247085    13
CTC2_L_00626010-04
1 10093U 26590KI  26075.70050926  .00000000  00000+0  00000-0 0  9993
2 10093  55.0000 270.0000 0000000   0.0000 216.0000  4.55247085    14
CTC2_L_00626010-05
1 10094U 23880AA  26075.70050926  .00000000  00000+0  00000-0 0  9993
2 10094  55.0000 270.0000 0000000   0.0000 252.0000  4.55247085    15
CTC2_L_00626010-06
1 10095U 26496ZL  26075.70050926  .00000000  00000+0  00000-0 0  9990
2 10095  55.0000 270.0000 0000000   0.0000 288.0000  4.55247085    15
CTC2_L_00626010-07
1 10096U 25798AK  26075.70050926  .00000000  00000+0  00000-0 0  9995
2 10096  55.0000 270.0000 0000000   0.0000 324.0000  4.55247085    17
CTC2_L_00626010-08
1 10097U 26337CK  26075.70050926  .00000000  00000+0  00000-0 0  9996
2 10097  55.0000 270.0000 0000000   0.0000   0.0000  4.55247085    19
CTC2_L_00626010-09
1 10098U 22889US  26075.70050926  .00000000  00000+0  00000-0 0  9995
2 10098  55.0000 270.0000 0000000   0.0000  36.0000  4.55247085    19
CTC2_L_00626010-10
1 10099U 26854IQ  26075.70050926  .00000000  00000+0  00000-0 0  9992
2 10099  55.0000 270.0000 0000000   0.0000  72.0000  4.55247085    10
CTC2_L_00626011-01
1 10100U 25094NW  26075.70050926  .00000000  00000+0  00000-0 0  9990
2 10100  55.0000 300.0000 0000000   0.0000 120.0000  4.55247085    11
CTC2_L_00626011-02
1 10101U 25699CT  26075.70050926  .00000000  00000+0  00000-0 0  9992
2 10101  55.0000 300.0000 0000000   0.0000 156.0000  4.55247085    11
CTC2_L_00626011-03
1 10102U 22620LO  26075.70050926  .00000000  00000+0  00000-0 0  9994
2 10102  55.0000 300.0000 0000000   0.0000 192.0000  4.55247085    12
CTC2_L_00626011-04
1 10103U 22816QS  26075.70050926  .00000000  00000+0  00000-0 0  9992
2 10103  55.0000 300.0000 0000000   0.0000 228.0000  4.55247085    13
CTC2_L_00626011-05
1 10104U 26413MU  26075.70050926  .00000000  00000+0  00000-0 0  9990
2 10104  55.0000 300.0000 0000000   0.0000 264.0000  4.55247085    14
CTC2_L_00626011-06
1 10105U 24768EG  26075.70050926  .00000000  00000+0  00000-0 0  9992
2 10105  55.0000 300.0000 0000000   0.0000 300.0000  4.55247085    16
CTC2_L_00626011-07
1 10106U 23061BK  26075.70050926  .00000000  00000+0  00000-0 0  9998
2 10106  55.0000 300.0000 0000000   0.0000 336.0000  4.55247085    16
CTC2_L_00626011-08
1 10107U 25031UM  26075.70050926  .00000000  00000+0  00000-0 0  9998
2 10107  55.0000 300.0000 0000000   0.0000  12.0000  4.55247085    18
CTC2_L_00626011-09
1 10108U 23418CD  26075.70050926  .00000000  00000+0  00000-0 0  9996
2 10108  55.0000 300.0000 0000000   0.0000  48.0000  4.55247085    18
CTC2_L_00626011-10
1 10109U 26529YD  26075.70050926  .00000000  00000+0  00000-0 0  9993
2 10109  55.0000 300.0000 0000000   0.0000  84.0000  4.55247085    19
CTC2_L_00626012-01
1 10110U 26055HV  26075.70050926  .00000000  00000+0  00000-0 0  9999
2 10110  55.0000 330.0000 0000000   0.0000 132.0000  4.55247085    18
CTC2_L_00626012-02
1 10111U 22043CL  26075.70050926  .00000000  00000+0  00000-0 0  9993
2 10111  55.0000 330.0000 0000000   0.0000 168.0000  4.55247085    18
CTC2_L_00626012-03
1 10112U 22450QO  26075.70050926  .00000000  00000+0  00000-0 0  9996
2 10112  55.0000 330.0000 0000000   0.0000 204.0000  4.55247085    10
CTC2_L_00626012-04
1 10113U 24313GQ  26075.70050926  .00000000  00000+0  00000-0 0  9997
2 10113  55.0000 330.0000 0000000   0.0000 240.0000  4.55247085    11
CTC2_L_00626012-05
1 10114U 24267AT  26075.70050926  .00000000  00000+0  00000-0 0  9996
2 10114  55.0000 330.0000 0000000   0.0000 276.0000  4.55247085    11
CTC2_L_00626012-06
1 10115U 22141WW  26075.70050926  .00000000  00000+0  00000-0 0  9996
2 10115  55.0000 330.0000 0000000   0.0000 312.0000  4.55247085    13
CTC2_L_00626012-07
1 10116U 26040NQ  26075.70050926  .00000000  00000+0  00000-0 0  9999
2 10116  55.0000 330.0000 0000000   0.0000 348.0000  4.55247085    13
CTC2_L_00626012-08
1 10117U 23081MP  26075.70050926  .00000000  00000+0  00000-0 0  9992
2 10117  55.0000 330.0000 0000000   0.0000  24.0000  4.55247085    15
CTC2_L_00626012-09
1 10118U 22028TF  26075.70050926  .00000000  00000+0  00000-0 0  9993
2 10118  55.0000 330.0000 0000000   0.0000  60.0000  4.55247085    16
CTC2_L_00626012-10
1 10119U 25894LQ  26075.70050926  .00000000  00000+0  00000-0 0  9998
2 10119  55.0000 330.0000 0000000   0.0000  96.0000  4.55247085    16
